HST                     
1 20580U 90037B   26199.75945339  .00002987  00000+0  89242-4 0  9990
2 20580  28.4721 224.7316 0002157 138.2222 221.8539 15.31081460793414
POLAR                   
1 23802U 96013A   26198.07629098  .00000165  00000+0  00000+0 0  9991
2 23802  79.8950 226.6973 6500355 208.0495  91.8485  1.29846054145242
SWAS                    
1 25560U 98071A   26199.88546363  .00001570  00000+0  10355-3 0  9992
2 25560  69.8944 145.7655 0007671 226.5610 133.4917 15.09760567502052
CXO                     
1 25867U 99040B   26201.11356867  .00000551  00000+0  00000+0 0  9997
2 25867  56.6395 115.7467 7780937 310.0076   0.5836  0.37806069 17440
XMM-NEWTON              
1 25989U 99066A   26201.25992622 -.00000007  00000+0  00000+0 0  9997
2 25989  64.3074 282.5600 4664570  64.3171   0.0365  0.50127970 23163
TERRA                   
1 25994U 99068A   26199.92711742  .00000156  00000+0  40641-4 0  9991
2 25994  97.9438 248.2121 0003546 115.4264 290.2725 14.61125306414243
CLUSTER II-FM7 (SAMBA)  
1 26410U 00041A   26201.60153466  .00010309 -30419-5  00000+0 0  9995
2 26410 149.8022  56.9138 9091735 274.4937 359.4015  0.44849809 20468
CLUSTER II-FM8 (TANGO)  
1 26464U 00045B   26197.70219189  .00011360  00000+0  00000+0 0  9992
2 26464 150.0277  57.4160 9093363 274.7881   2.0004  0.44421164 20441
ODIN                    
1 26702U 01007A   26199.57788139  .00293286  34125-4  91784-3 0  9991
2 26702  97.3687 242.8555 0005108 151.5829 208.5724 15.91446759394369
TIMED                   
1 26998U 01055B   26199.92120494  .00000534  00000+0  51999-4 0  9991
2 26998  74.0668 171.1193 0002316 296.5904  63.5043 14.95348938335564
CORIOLIS                
1 27640U 03001A   26199.90637003  .00000034  00000+0  36554-4 0  9991
2 27640  98.7135 206.3079 0015064 119.2954 240.9730 14.19952442218724
SORCE                   
1 27651U 03004A   26199.75088092  .00001149  00000+0  92696-4 0  9994
2 27651  39.9915  81.5714 0018764 278.2999  81.5667 15.03851306276658
MOST                    
1 27843U 03031D   26199.88977391  .00000010  00000+0  24472-4 0  9993
2 27843  98.7054 207.1742 0010308 154.8482 205.3199 14.21328144195213
SCISAT 1                
1 27858U 03036A   26199.89666380  .00000249  00000+0  36514-4 0  9992
2 27858  73.9302 108.3406 0007194 175.4553 184.6691 14.81481198236145
SWIFT                   
1 28485U 04047A   26199.57643796  .00039733  00000+0  28862-3 0  9999
2 28485  20.5525 302.2090 0002527  57.1497 302.9192 15.71432448191807
HINODE (SOLAR-B)        
1 29479U 06041A   26199.45750348  .00000261  00000+0  53208-4 0  9995
2 29479  98.0548 215.1492 0017289 183.9439 176.1633 14.68660447 59462
SHIJIAN-6 02A (SJ-6 02A)
1 29505U 06046A   26199.94841936  .00001476  00000+0  77641-4 0  9994
2 29505  97.6340 241.2574 0004085  55.7906 304.3714 15.17265359 77084
SHIJIAN-6 02B (SJ-6 02B)
1 29506U 06046B   26200.00288149  .00000342  00000+0  31203-4 0  9991
2 29506  97.7139 228.8643 0012888 322.6609  37.3718 15.01440984 75511
FGRST (GLAST)           
1 33053U 08029A   26199.72212140  .00001797  00000+0  58465-4 0  9994
2 33053  25.5830 345.4947 0007946 342.2061  17.8198 15.24087847   504
SDO                     
1 36395U 10005A   26199.24005113 -.00000094  00000+0  00000+0 0  9997
2 36395  34.7143  85.8693 0001755  43.0517 151.3467  1.00277384 60372
CRYOSAT 2               
1 36508U 10013A   26199.92263496  .00000082  00000+0  19662-4 0  9992
2 36508  92.0357 285.0167 0002441  98.7929 261.3554 14.51899145862687
X-SAT                   
1 37389U 11015C   26199.88805623  .00000136  00000+0  75382-4 0  9993
2 37389  98.3535 175.4051 0012767 248.7588 111.2229 14.25214913792191
GCOM-W1 (SHIZUKU)       
1 38337U 12025A   26199.83316296  .00000191  00000+0  52550-4 0  9990
2 38337  98.2024 139.9102 0001279  78.8347  16.6223 14.57091873753642
NUSTAR                  
1 38358U 12031A   26200.00001157  .00002270  00000+0  86581-4 0  9990
2 38358   6.0248 155.4493 0008459 227.2602 347.7169 15.09060648  1307
NEOSSAT                 
1 39089U 13009D   26199.42897953  .00000042  00000+0  29219-4 0  9998
2 39089  98.4192  18.7209 0011630 148.0748 212.1145 14.35836280701222
BRITE-AUSTRIA           
1 39091U 13009F   26199.48169857  .00000062  00000+0  35786-4 0  9990
2 39091  98.4011  18.1453 0010939 141.4907 218.7063 14.36553265701541
IRIS                    
1 39197U 13033A   26199.14119398  .00000490  00000+0  62352-4 0  9996
2 39197  97.9318  38.3206 0023518 214.9300 145.0373 14.85940228704971
HISAKI (SPRINT-A)       
1 39253U 13049A   26199.87097000  .00000091  00000+0  32967-4 0  9997
2 39253  29.7217  58.9250 0136974 273.6624  84.8293 13.55546936635725
CASSIOPE                
1 39265U 13055A   26199.88613099  .00015657 -53229-6  16748-3 0  9991
2 39265  80.9132  28.1405 0282184 315.3651  42.5165 15.27543902672500
STSAT-3                 
1 39422U 13066G   26199.93921387  .00001822  00000+0  14023-3 0  9990
2 39422  97.6205 169.3152 0008828 289.9544  70.0730 15.02899982688973
